[{"OBJECT_NAME":"ONEWEB-0151","OBJECT_ID":"2021-025AA","EPOCH":"2026-01-01T00:21:35.191296","MEAN_MOTION":13.13468727,"ECCENTRICITY":0.00016161,"INCLINATION":87.8988,"RA_OF_ASC_NODE":353.4437,"ARG_OF_PERICENTER":82.9062,"MEAN_ANOMALY":277.2251,"EPHEMERIS_TYPE":0,"CLASSIFICATION_TYPE":"U","NORAD_CAT_ID":48066,"ELEMENT_SET_NO":999,"REV_AT_EPOCH":23164,"BSTAR":-0.00032641883,"MEAN_MOTION_DOT":-1.06e-6,"MEAN_MOTION_DDOT":0},{"OBJECT_NAME":"ONEWEB-0170","OBJECT_ID":"2021-025AB","EPOCH":"2026-01-01T00:33:46.151712","MEAN_MOTION":13.13468865,"ECCENTRICITY":0.00018682,"INCLINATION":87.8984,"RA_OF_ASC_NODE":353.4461,"ARG_OF_PERICENTER":72.2855,"MEAN_ANOMALY":287.8478,"EPHEMERIS_TYPE":0,"CLASSIFICATION_TYPE":"U","NORAD_CAT_ID":48067,"ELEMENT_SET_NO":999,"REV_AT_EPOCH":23160,"BSTAR":0.00057446172,"MEAN_MOTION_DOT":2.23e-6,"MEAN_MOTION_DDOT":0},{"OBJECT_NAME":"ONEWEB-0168","OBJECT_ID":"2021-025AC","EPOCH":"2026-01-01T00:11:49.725024","MEAN_MOTION":13.13469166,"ECCENTRICITY":0.00015639,"INCLINATION":87.899,"RA_OF_ASC_NODE":353.4356,"ARG_OF_PERICENTER":90.7327,"MEAN_ANOMALY":269.3982,"EPHEMERIS_TYPE":0,"CLASSIFICATION_TYPE":"U","NORAD_CAT_ID":48068,"ELEMENT_SET_NO":999,"REV_AT_EPOCH":23161,"BSTAR":-0.00053259225,"MEAN_MOTION_DOT":-1.82e-6,"MEAN_MOTION_DDOT":0},{"OBJECT_NAME":"ONEWEB-0173","OBJECT_ID":"2021-025AD","EPOCH":"2025-12-31T23:59:38.327424","MEAN_MOTION":13.13469245,"ECCENTRICITY":0.00012885,"INCLINATION":87.8992,"RA_OF_ASC_NODE":353.445,"ARG_OF_PERICENTER":87.7366,"MEAN_ANOMALY":272.391,"EPHEMERIS_TYPE":0,"CLASSIFICATION_TYPE":"U","NORAD_CAT_ID":48069,"ELEMENT_SET_NO":999,"REV_AT_EPOCH":23185,"BSTAR":-0.00089642311,"MEAN_MOTION_DOT":-3.15e-6,"MEAN_MOTION_DDOT":0},{"OBJECT_NAME":"ONEWEB-0171","OBJECT_ID":"2021-025AE","EPOCH":"2025-12-31T21:13:53.107680","MEAN_MOTION":13.13469436,"ECCENTRICITY":0.0001622,"INCLINATION":87.8977,"RA_OF_ASC_NODE":353.4873,"ARG_OF_PERICENTER":82.065,"MEAN_ANOMALY":278.0663,"EPHEMERIS_TYPE":0,"CLASSIFICATION_TYPE":"U","NORAD_CAT_ID":48070,"ELEMENT_SET_NO":999,"REV_AT_EPOCH":23165,"BSTAR":0.0010995,"MEAN_MOTION_DOT":4.14e-6,"MEAN_MOTION_DDOT":0},{"OBJECT_NAME":"ONEWEB-0172","OBJECT_ID":"2021-025AF","EPOCH":"2026-01-01T00:24:01.006848","MEAN_MOTION":13.13468467,"ECCENTRICITY":0.00015444,"INCLINATION":87.8986,"RA_OF_ASC_NODE":353.4457,"ARG_OF_PERICENTER":84.024,"MEAN_ANOMALY":276.1066,"EPHEMERIS_TYPE":0,"CLASSIFICATION_TYPE":"U","NORAD_CAT_ID":48071,"ELEMENT_SET_NO":999,"REV_AT_EPOCH":23256,"BSTAR":-0.00024972675,"MEAN_MOTION_DOT":-7.8e-7,"MEAN_MOTION_DDOT":0},{"OBJECT_NAME":"ONEWEB-0174","OBJECT_ID":"2021-025AG","EPOCH":"2025-12-31T23:57:12.186144","MEAN_MOTION":13.13469676,"ECCENTRICITY":0.00017164,"INCLINATION":87.8982,"RA_OF_ASC_NODE":353.4524,"ARG_OF_PERICENTER":92.3513,"MEAN_ANOMALY":267.7813,"EPHEMERIS_TYPE":0,"CLASSIFICATION_TYPE":"U","NORAD_CAT_ID":48072,"ELEMENT_SET_NO":999,"REV_AT_EPOCH":23188,"BSTAR":-0.00062347554,"MEAN_MOTION_DOT":-2.15e-6,"MEAN_MOTION_DDOT":0},{"OBJECT_NAME":"ONEWEB-0175","OBJECT_ID":"2021-025AH","EPOCH":"2025-12-31T21:01:41.526912","MEAN_MOTION":13.13469343,"ECCENTRICITY":0.0001623,"INCLINATION":87.8988,"RA_OF_ASC_NODE":353.4468,"ARG_OF_PERICENTER":74.3525,"MEAN_ANOMALY":285.7783,"EPHEMERIS_TYPE":0,"CLASSIFICATION_TYPE":"U","NORAD_CAT_ID":48073,"ELEMENT_SET_NO":999,"REV_AT_EPOCH":23152,"BSTAR":0.00088949,"MEAN_MOTION_DOT":3.38e-6,"MEAN_MOTION_DDOT":0},{"OBJECT_NAME":"ONEWEB-0177","OBJECT_ID":"2021-025AJ","EPOCH":"2025-12-31T21:18:45.817056","MEAN_MOTION":13.134692,"ECCENTRICITY":0.0001563,"INCLINATION":87.899,"RA_OF_ASC_NODE":353.4641,"ARG_OF_PERICENTER":92.0657,"MEAN_ANOMALY":268.0651,"EPHEMERIS_TYPE":0,"CLASSIFICATION_TYPE":"U","NORAD_CAT_ID":48074,"ELEMENT_SET_NO":999,"REV_AT_EPOCH":23171,"BSTAR":0.0010598,"MEAN_MOTION_DOT":4.0e-6,"MEAN_MOTION_DDOT":0},{"OBJECT_NAME":"ONEWEB-0178","OBJECT_ID":"2021-025AK","EPOCH":"2025-12-31T21:45:46.161792","MEAN_MOTION":13.13468551,"ECCENTRICITY":0.000146,"INCLINATION":87.8978,"RA_OF_ASC_NODE":353.4992,"ARG_OF_PERICENTER":81.5581,"MEAN_ANOMALY":278.5714,"EPHEMERIS_TYPE":0,"CLASSIFICATION_TYPE":"U","NORAD_CAT_ID":48075,"ELEMENT_SET_NO":999,"REV_AT_EPOCH":23176,"BSTAR":9.0346e-6,"MEAN_MOTION_DOT":1.6e-7,"MEAN_MOTION_DDOT":0},{"OBJECT_NAME":"ONEWEB-0108","OBJECT_ID":"2021-025AL","EPOCH":"2026-01-01T00:26:27.988800","MEAN_MOTION":13.13469831,"ECCENTRICITY":0.00019103,"INCLINATION":87.8988,"RA_OF_ASC_NODE":353.4278,"ARG_OF_PERICENTER":88.8232,"MEAN_ANOMALY":271.3116,"EPHEMERIS_TYPE":0,"CLASSIFICATION_TYPE":"U","NORAD_CAT_ID":48076,"ELEMENT_SET_NO":999,"REV_AT_EPOCH":23170,"BSTAR":3.920441e-5,"MEAN_MOTION_DOT":2.7e-7,"MEAN_MOTION_DDOT":0},{"OBJECT_NAME":"ONEWEB-0169","OBJECT_ID":"2021-025AM","EPOCH":"2025-12-31T23:23:04.119072","MEAN_MOTION":13.13467701,"ECCENTRICITY":0.00019118,"INCLINATION":87.8982,"RA_OF_ASC_NODE":353.4565,"ARG_OF_PERICENTER":89.2662,"MEAN_ANOMALY":270.8686,"EPHEMERIS_TYPE":0,"CLASSIFICATION_TYPE":"U","NORAD_CAT_ID":48077,"ELEMENT_SET_NO":999,"REV_AT_EPOCH":23035,"BSTAR":0.00049441786,"MEAN_MOTION_DOT":1.93e-6,"MEAN_MOTION_DDOT":0},{"OBJECT_NAME":"ONEWEB-0176","OBJECT_ID":"2021-031A","EPOCH":"2026-01-01T06:03:53.014752","MEAN_MOTION":13.14501497,"ECCENTRICITY":0.0001641,"INCLINATION":87.9009,"RA_OF_ASC_NODE":322.9618,"ARG_OF_PERICENTER":78.7657,"MEAN_ANOMALY":281.3657,"EPHEMERIS_TYPE":0,"CLASSIFICATION_TYPE":"U","NORAD_CAT_ID":48210,"ELEMENT_SET_NO":999,"REV_AT_EPOCH":22638,"BSTAR":0.00047045332,"MEAN_MOTION_DOT":1.87e-6,"MEAN_MOTION_DDOT":0},{"OBJECT_NAME":"ONEWEB-0184","OBJECT_ID":"2021-031B","EPOCH":"2026-01-01T07:14:39.591168","MEAN_MOTION":13.14501964,"ECCENTRICITY":0.00014885,"INCLINATION":87.9021,"RA_OF_ASC_NODE":322.9351,"ARG_OF_PERICENTER":51.1225,"MEAN_ANOMALY":309.0038,"EPHEMERIS_TYPE":0,"CLASSIFICATION_TYPE":"U","NORAD_CAT_ID":48211,"ELEMENT_SET_NO":999,"REV_AT_EPOCH":22636,"BSTAR":-0.00054014575,"MEAN_MOTION_DOT":-1.87e-6,"MEAN_MOTION_DDOT":0},{"OBJECT_NAME":"ONEWEB-0179","OBJECT_ID":"2021-031C","EPOCH":"2026-01-01T06:32:25.091232","MEAN_MOTION":13.14504039,"ECCENTRICITY":0.00016076,"INCLINATION":87.9014,"RA_OF_ASC_NODE":322.948,"ARG_OF_PERICENTER":87.8227,"MEAN_ANOMALY":272.3087,"EPHEMERIS_TYPE":0,"CLASSIFICATION_TYPE":"U","NORAD_CAT_ID":48212,"ELEMENT_SET_NO":999,"REV_AT_EPOCH":22640,"BSTAR":0.00038380883,"MEAN_MOTION_DOT":1.55e-6,"MEAN_MOTION_DDOT":0},{"OBJECT_NAME":"ONEWEB-0180","OBJECT_ID":"2021-031D","EPOCH":"2026-01-01T07:19:13.781568","MEAN_MOTION":13.14502487,"ECCENTRICITY":0.00013897,"INCLINATION":87.902,"RA_OF_ASC_NODE":322.9401,"ARG_OF_PERICENTER":81.7629,"MEAN_ANOMALY":278.3659,"EPHEMERIS_TYPE":0,"CLASSIFICATION_TYPE":"U","NORAD_CAT_ID":48213,"ELEMENT_SET_NO":999,"REV_AT_EPOCH":22629,"BSTAR":-0.00057534003,"MEAN_MOTION_DOT":-2.01e-6,"MEAN_MOTION_DDOT":0}]
