ONEWEB-0151             
1 48066U 21025AA  26001.01499064 -.00000106  00000+0 -32642-3 0  9994
2 48066  87.8988 353.4437 0001616  82.9062 277.2251 13.13468727231648
ONEWEB-0170             
1 48067U 21025AB  26001.02345083  .00000223  00000+0  57446-3 0  9994
2 48067  87.8984 353.4461 0001868  72.2855 287.8478 13.13468865231600
ONEWEB-0168             
1 48068U 21025AC  26001.00821441 -.00000182  00000+0 -53259-3 0  9994
2 48068  87.8990 353.4356 0001563  90.7327 269.3982 13.13469166231613
ONEWEB-0173             
1 48069U 21025AD  25365.99974916 -.00000315  00000+0 -89642-3 0  9994
2 48069  87.8992 353.4450 0001288  87.7366 272.3910 13.13469245231853
ONEWEB-0171             
1 48070U 21025AE  25365.88464245  .00000414  00000+0  10995-2 0  9995
2 48070  87.8977 353.4873 0001622  82.0650 278.0663 13.13469436231651
ONEWEB-0172             
1 48071U 21025AF  26001.01667832 -.00000078  00000+0 -24973-3 0  9996
2 48071  87.8986 353.4457 0001544  84.0240 276.1066 13.13468467232560
ONEWEB-0174             
1 48072U 21025AG  25365.99805771 -.00000215  00000+0 -62348-3 0  9993
2 48072  87.8982 353.4524 0001716  92.3513 267.7813 13.13469676231881
ONEWEB-0175             
1 48073U 21025AH  25365.87617508  .00000338  00000+0  88949-3 0  9999
2 48073  87.8988 353.4468 0001623  74.3525 285.7783 13.13469343231523
ONEWEB-0177             
1 48074U 21025AJ  25365.88803029  .00000400  00000+0  10598-2 0  9990
2 48074  87.8990 353.4641 0001563  92.0657 268.0651 13.13469200231717
ONEWEB-0178             
1 48075U 21025AK  25365.90678428  .00000016  00000+0  90346-5 0  9992
2 48075  87.8978 353.4992 0001460  81.5581 278.5714 13.13468551231767
ONEWEB-0108             
1 48076U 21025AL  26001.01837950  .00000027  00000+0  39204-4 0  9997
2 48076  87.8988 353.4278 0001910  88.8232 271.3116 13.13469831231702
ONEWEB-0169             
1 48077U 21025AM  25365.97435323  .00000193  00000+0  49442-3 0  9991
2 48077  87.8982 353.4565 0001911  89.2662 270.8686 13.13467701230359
ONEWEB-0176             
1 48210U 21031A   26001.25269693  .00000187  00000+0  47045-3 0  9991
2 48210  87.9009 322.9618 0001641  78.7657 281.3657 13.14501497226381
ONEWEB-0184             
1 48211U 21031B   26001.30184712 -.00000187  00000+0 -54015-3 0  9993
2 48211  87.9021 322.9351 0001488  51.1225 309.0038 13.14501964226363
ONEWEB-0179             
1 48212U 21031C   26001.27251263  .00000155  00000+0  38381-3 0  9997
2 48212  87.9014 322.9480 0001607  87.8227 272.3087 13.14504039226407
ONEWEB-0180             
1 48213U 21031D   26001.30502062 -.00000201  00000+0 -57534-3 0  9993
2 48213  87.9020 322.9401 0001389  81.7629 278.3659 13.14502487226297
